{
  "type": "FeatureCollection",
  "features": [
    {
      "type": "Feature",
      "properties": {
        "norad_id": 24876,
        "name": "GPS BIIR-2  (PRN 13)",
        "group": "gps-ops",
        "lat": 16.614229733024118,
        "lon": 117.27638790908313,
        "alt_km": 19973.502167602022,
        "timestamp": "2025-12-18T17:50:15.215986+00:00",
        "meta_object_name": "GPS BIIR-2  (PRN 13)",
        "meta_object_id": "1997-035A",
        "meta_epoch": "2025-12-17T17:14:35.709504",
        "meta_mean_motion": 2.00563699,
        "meta_eccentricity": 0.00967771,
        "meta_inclination": 55.8976,
        "meta_ra_of_asc_node": 105.6742,
        "meta_arg_of_pericenter": 56.9662,
        "meta_mean_anomaly": 303.9295,
        "meta_ephemeris_type": 0,
        "meta_classification_type": "U",
        "meta_norad_cat_id": 24876,
        "meta_element_set_no": 999,
        "meta_rev_at_epoch": 20831,
        "meta_bstar": 0,
        "meta_mean_motion_dot": -2.3e-07,
        "meta_mean_motion_ddot": 0,
        "tle_line1": "1 24876U 97035A   25351.71846886 -.00000023  00000+0  00000+0 0  9999",
        "tle_line2": "2 24876  55.8976 105.6742 0096777  56.9662 303.9295  2.00563699208319"
      },
      "geometry": {
        "type": "Point",
        "coordinates": [
          117.27638790908313,
          16.614229733024118
        ]
      }
    },
    {
      "type": "Feature",
      "properties": {
        "norad_id": 26360,
        "name": "GPS BIIR-4  (PRN 20)",
        "group": "gps-ops",
        "lat": 49.22829765089187,
        "lon": 152.45009842319493,
        "alt_km": 20242.417960825427,
        "timestamp": "2025-12-18T17:50:15.216013+00:00",
        "meta_object_name": "GPS BIIR-4  (PRN 20)",
        "meta_object_id": "2000-025A",
        "meta_epoch": "2025-12-18T04:28:10.585632",
        "meta_mean_motion": 2.00567362,
        "meta_eccentricity": 0.0038886,
        "meta_inclination": 55.0484,
        "meta_ra_of_asc_node": 26.6175,
        "meta_arg_of_pericenter": 242.5017,
        "meta_mean_anomaly": 188.1576,
        "meta_ephemeris_type": 0,
        "meta_classification_type": "U",
        "meta_norad_cat_id": 26360,
        "meta_element_set_no": 999,
        "meta_rev_at_epoch": 18764,
        "meta_bstar": 0,
        "meta_mean_motion_dot": -7.5e-07,
        "meta_mean_motion_ddot": 0,
        "tle_line1": "1 26360U 00025A   25352.18623363 -.00000075  00000+0  00000+0 0  9994",
        "tle_line2": "2 26360  55.0484  26.6175 0038886 242.5017 188.1576  2.00567362187649"
      },
      "geometry": {
        "type": "Point",
        "coordinates": [
          152.45009842319493,
          49.22829765089187
        ]
      }
    },
    {
      "type": "Feature",
      "properties": {
        "norad_id": 26407,
        "name": "GPS BIIR-5  (PRN 22)",
        "group": "gps-ops",
        "lat": -36.97856243264418,
        "lon": -169.62594894176144,
        "alt_km": 19858.601264446985,
        "timestamp": "2025-12-18T17:50:15.216029+00:00",
        "meta_object_name": "GPS BIIR-5  (PRN 22)",
        "meta_object_id": "2000-040A",
        "meta_epoch": "2025-12-18T01:31:29.889696",
        "meta_mean_motion": 2.00568104,
        "meta_eccentricity": 0.01257268,
        "meta_inclination": 54.8896,
        "meta_ra_of_asc_node": 222.3573,
        "meta_arg_of_pericenter": 301.8987,
        "meta_mean_anomaly": 239.8065,
        "meta_ephemeris_type": 0,
        "meta_classification_type": "U",
        "meta_norad_cat_id": 26407,
        "meta_element_set_no": 999,
        "meta_rev_at_epoch": 18631,
        "meta_bstar": 0,
        "meta_mean_motion_dot": 7.4e-07,
        "meta_mean_motion_ddot": 0,
        "tle_line1": "1 26407U 00040A   25352.06354039  .00000074  00000+0  00000+0 0  9999",
        "tle_line2": "2 26407  54.8896 222.3573 0125726 301.8987 239.8065  2.00568104186312"
      },
      "geometry": {
        "type": "Point",
        "coordinates": [
          -169.62594894176144,
          -36.97856243264418
        ]
      }
    },
    {
      "type": "Feature",
      "properties": {
        "norad_id": 27663,
        "name": "GPS BIIR-8  (PRN 16)",
        "group": "gps-ops",
        "lat": 54.914873115453,
        "lon": -48.9230557297631,
        "alt_km": 19861.672463373452,
        "timestamp": "2025-12-18T17:50:15.216044+00:00",
        "meta_object_name": "GPS BIIR-8  (PRN 16)",
        "meta_object_id": "2003-005A",
        "meta_epoch": "2025-12-18T07:42:25.953408",
        "meta_mean_motion": 2.00570667,
        "meta_eccentricity": 0.01476507,
        "meta_inclination": 54.922,
        "meta_ra_of_asc_node": 222.1563,
        "meta_arg_of_pericenter": 51.8768,
        "meta_mean_anomaly": 91.7669,
        "meta_ephemeris_type": 0,
        "meta_classification_type": "U",
        "meta_norad_cat_id": 27663,
        "meta_element_set_no": 999,
        "meta_rev_at_epoch": 16768,
        "meta_bstar": 0,
        "meta_mean_motion_dot": 7.5e-07,
        "meta_mean_motion_ddot": 0,
        "tle_line1": "1 27663U 03005A   25352.32113372  .00000075  00000+0  00000+0 0  9991",
        "tle_line2": "2 27663  54.9220 222.1563 0147650  51.8768  91.7669  2.00570667167686"
      },
      "geometry": {
        "type": "Point",
        "coordinates": [
          -48.9230557297631,
          54.914873115453
        ]
      }
    },
    {
      "type": "Feature",
      "properties": {
        "norad_id": 28190,
        "name": "GPS BIIR-11 (PRN 19)",
        "group": "gps-ops",
        "lat": -49.50672998559884,
        "lon": 158.04238715324618,
        "alt_km": 20137.275157825443,
        "timestamp": "2025-12-18T17:50:15.216057+00:00",
        "meta_object_name": "GPS BIIR-11 (PRN 19)",
        "meta_object_id": "2004-009A",
        "meta_epoch": "2025-12-18T01:19:43.105728",
        "meta_mean_motion": 2.00560667,
        "meta_eccentricity": 0.01084092,
        "meta_inclination": 54.9808,
        "meta_ra_of_asc_node": 283.0048,
        "meta_arg_of_pericenter": 167.7197,
        "meta_mean_anomaly": 302.5438,
        "meta_ephemeris_type": 0,
        "meta_classification_type": "U",
        "meta_norad_cat_id": 28190,
        "meta_element_set_no": 999,
        "meta_rev_at_epoch": 15931,
        "meta_bstar": 0,
        "meta_mean_motion_dot": -5.1e-07,
        "meta_mean_motion_ddot": 0,
        "tle_line1": "1 28190U 04009A   25352.05536002 -.00000051  00000+0  00000+0 0  9996",
        "tle_line2": "2 28190  54.9808 283.0048 0108409 167.7197 302.5438  2.00560667159317"
      },
      "geometry": {
        "type": "Point",
        "coordinates": [
          158.04238715324618,
          -49.50672998559884
        ]
      }
    },
    {
      "type": "Feature",
      "properties": {
        "norad_id": 28474,
        "name": "GPS BIIR-13 (PRN 02)",
        "group": "gps-ops",
        "lat": -40.894990187459754,
        "lon": -64.81835069171456,
        "alt_km": 19732.30961113645,
        "timestamp": "2025-12-18T17:50:15.216070+00:00",
        "meta_object_name": "GPS BIIR-13 (PRN 02)",
        "meta_object_id": "2004-045A",
        "meta_epoch": "2025-12-18T01:39:38.765952",
        "meta_mean_motion": 2.00569875,
        "meta_eccentricity": 0.01708529,
        "meta_inclination": 55.238,
        "meta_ra_of_asc_node": 332.1914,
        "meta_arg_of_pericenter": 309.4802,
        "meta_mean_anomaly": 231.0384,
        "meta_ephemeris_type": 0,
        "meta_classification_type": "U",
        "meta_norad_cat_id": 28474,
        "meta_element_set_no": 999,
        "meta_rev_at_epoch": 15479,
        "meta_bstar": 0,
        "meta_mean_motion_dot": -8.7e-07,
        "meta_mean_motion_ddot": 0,
        "tle_line1": "1 28474U 04045A   25352.06919868 -.00000087  00000+0  00000+0 0  9996",
        "tle_line2": "2 28474  55.2380 332.1914 0170852 309.4802 231.0384  2.00569875154791"
      },
      "geometry": {
        "type": "Point",
        "coordinates": [
          -64.81835069171456,
          -40.894990187459754
        ]
      }
    },
    {
      "type": "Feature",
      "properties": {
        "norad_id": 28874,
        "name": "GPS BIIRM-1 (PRN 17)",
        "group": "gps-ops",
        "lat": -54.80925455836476,
        "lon": -177.1911499679147,
        "alt_km": 19877.8379266596,
        "timestamp": "2025-12-18T17:50:15.216081+00:00",
        "meta_object_name": "GPS BIIRM-1 (PRN 17)",
        "meta_object_id": "2005-038A",
        "meta_epoch": "2025-12-18T01:19:16.809024",
        "meta_mean_motion": 2.00578146,
        "meta_eccentricity": 0.01314775,
        "meta_inclination": 55.0272,
        "meta_ra_of_asc_node": 280.4869,
        "meta_arg_of_pericenter": 293.6658,
        "meta_mean_anomaly": 195.7064,
        "meta_ephemeris_type": 0,
        "meta_classification_type": "U",
        "meta_norad_cat_id": 28874,
        "meta_element_set_no": 999,
        "meta_rev_at_epoch": 14820,
        "meta_bstar": 0,
        "meta_mean_motion_dot": -4.7e-07,
        "meta_mean_motion_ddot": 0,
        "tle_line1": "1 28874U 05038A   25352.05505566 -.00000047  00000+0  00000+0 0  9994",
        "tle_line2": "2 28874  55.0272 280.4869 0131477 293.6658 195.7064  2.00578146148201"
      },
      "geometry": {
        "type": "Point",
        "coordinates": [
          -177.1911499679147,
          -54.80925455836476
        ]
      }
    }
  ]
}